{ "44777": {"name": "JILIN-1 GAOFEN 2A", "norad_id": "44777", "line1": "1 44777U 19075A   26187.24386972  .00013904  00000+0  35199-3 0  9992", "line2": "2 44777  97.4957 271.4855 0006066  27.8254 332.3315 15.39847138367814", "country": "China", "operator": "Chang Guang Satellite Techno", "sensor": "Optical", "resolution_m": 1.0, "notes": "book:Jilin-1 Gaofen-2A", "fetched_at": 1783341740.9407542, "stale": false}, "44836": {"name": "JILIN-1 GAOFEN 2B", "norad_id": "44836", "line1": "1 44836U 19086A   26187.29394463  .00006488  00000+0  29570-3 0  9994", "line2": "2 44836  97.4870 259.1669 0012609 249.5933 110.3948 15.20932809363392", "country": "China", "operator": "Chang Guang Satellite Techno", "sensor": "Optical", "resolution_m": 1.0, "notes": "book:Jilin-1 Gaofen-2B", "fetched_at": 1783341741.2815297, "stale": false}, "44312": {"name": "JILIN-1 GAOFEN 3A", "norad_id": "44312", "line1": "1 44312U 19032C   26187.24506252  .00009839  00000+0  31118-3 0  9994", "line2": "2 44312  44.9742 252.0189 0004855  40.4852 319.6394 15.33068782390761", "country": "China", "operator": "Chang Guang Satellite Techno", "sensor": "Optical", "resolution_m": 1.0, "notes": "book:JILIN-1 SPECTRUM-01,02", "fetched_at": 1783341742.2866232, "stale": false}, "46457": {"name": "JILIN-1 GAOFEN 3E", "norad_id": "46457", "line1": "1 46457U 20065D   26187.27840116  .00074303  00000+0  71479-3 0  9999", "line2": "2 46457  97.2217 240.3591 0011524  99.9919 260.2643 15.66247350322749", "country": "China", "operator": "Chang Guang Satellite Techno", "sensor": "Optical", "resolution_m": 1.0, "notes": "book:JILIN-1 SPECTRUM-01,02", "fetched_at": 1783341742.95466, "stale": false}, "46458": {"name": "JILIN-1 GAOFEN 3F", "norad_id": "46458", "line1": "1 46458U 20065E   26187.27474882  .00063358  00000+0  68983-3 0  9997", "line2": "2 46458  97.2174 237.5949 0012934  87.4136 272.8603 15.63127526322683", "country": "China", "operator": "Chang Guang Satellite Techno", "sensor": "Optical", "resolution_m": 1.0, "notes": "book:JILIN-1 SPECTRUM-01,02", "fetched_at": 1783341743.2844355, "stale": false}, "46459": {"name": "JILIN-1 GAOFEN 3G", "norad_id": "46459", "line1": "1 46459U 20065F   26187.29546139  .00126341  00000+0  83191-3 0  9995", "line2": "2 46459  97.2231 244.7610 0004742 326.1554  33.9408 15.75276564322946", "country": "China", "operator": "Chang Guang Satellite Techno", "sensor": "Optical", "resolution_m": 1.0, "notes": "book:JILIN-1 SPECTRUM-01,02", "fetched_at": 1783341743.6219316, "stale": false}, "46460": {"name": "JILIN-1 GAOFEN 3H", "norad_id": "46460", "line1": "1 46460U 20065G   26187.31366805  .00101527  00000+0  80431-3 0  9993", "line2": "2 46460  97.2182 240.9818 0005001 235.3078 124.7715 15.70990102322881", "country": "China", "operator": "Chang Guang Satellite Techno", "sensor": "Optical", "resolution_m": 1.0, "notes": "book:JILIN-1 SPECTRUM-01,02", "fetched_at": 1783341743.948811, "stale": false}, "49256": {"name": "JILIN-1 GAOFEN 2D", "norad_id": "49256", "line1": "1 49256U 21086A   26187.30198950  .00004937  00000+0  29695-3 0  9998", "line2": "2 49256  97.6496 310.0120 0034409  79.9634 280.5475 15.10815925263609", "country": "China", "operator": "Chang Guang Satellite Techno", "sensor": "Optical", "resolution_m": 1.0, "notes": "book:JILIN-1 SPECTRUM-01,02", "fetched_at": 1783341744.9481585, "stale": false}, "49338": {"name": "JILIN-1 GAOFEN 2F", "norad_id": "49338", "line1": "1 49338U 21097A   26187.28033331  .00004392  00000+0  28922-3 0  9996", "line2": "2 49338  97.6727 313.4365 0019311 158.0987 202.1071 15.07906366259197", "country": "China", "operator": "Chang Guang Satellite Techno", "sensor": "Optical", "resolution_m": 1.0, "notes": "book:JILIN-1 SPECTRUM-01,02", "fetched_at": 1783341745.2872317, "stale": false}, "52444": {"name": "JILIN-1 GAOFEN 3D27", "norad_id": "52444", "line1": "1 52444U 22048B   26187.30951937  .00168943  00000+0  87108-3 0  9993", "line2": "2 52444  97.5726 303.0514 0004147 267.7247  92.3546 15.80671685232490", "country": "China", "operator": "Chang Guang Satellite Techno", "sensor": "Optical", "resolution_m": 1.0, "notes": "book:JILIN-1 SPECTRUM-01,02", "fetched_at": 1783341747.256587, "stale": false}, "52445": {"name": "JILIN-1 GAOFEN 3D28", "norad_id": "52445", "line1": "1 52445U 22048C   26187.26594543  .00216455  00000+0  91149-3 0  9997", "line2": "2 52445  97.5661 303.2463 0003821 256.6239 103.4605 15.84905525232543", "country": "China", "operator": "Chang Guang Satellite Techno", "sensor": "Optical", "resolution_m": 1.0, "notes": "book:JILIN-1 SPECTRUM-01,02", "fetched_at": 1783341747.5908363, "stale": false}, "52446": {"name": "JILIN-1 GAOFEN 3D29", "norad_id": "52446", "line1": "1 52446U 22048D   26187.29554597  .00173373  00000+0  88630-3 0  9998", "line2": "2 52446  97.5717 303.3992 0003558 242.7851 117.3055 15.80850648232518", "country": "China", "operator": "Chang Guang Satellite Techno", "sensor": "Optical", "resolution_m": 1.0, "notes": "book:JILIN-1 SPECTRUM-01,02", "fetched_at": 1783341747.9407997, "stale": false}, "52448": {"name": "JILIN-1 GAOFEN 3D31", "norad_id": "52448", "line1": "1 52448U 22048F   26187.25220051  .00288292  32427-4  99390-3 0  9996", "line2": "2 52448  97.5708 304.5626 0004383 248.5881 111.4924 15.89540716232602", "country": "China", "operator": "Chang Guang Satellite Techno", "sensor": "Optical", "resolution_m": 1.0, "notes": "book:JILIN-1 SPECTRUM-01,02", "fetched_at": 1783341748.6243324, "stale": false}, "53445": {"name": "JILIN-1 GAOFEN 03D09", "norad_id": "53445", "line1": "1 53445U 22098B   26187.29560066  .00071161  00000+0  61039-3 0  9997", "line2": "2 53445  97.5620 318.4370 0002813 262.4118  97.6824 15.69173606217624", "country": "China", "operator": "Chang Guang Satellite Techno", "sensor": "Optical", "resolution_m": 1.0, "notes": "book:JILIN-1 SPECTRUM-01,02", "fetched_at": 1783341748.9579022, "stale": false}, "53448": {"name": "JILIN-1 GAOFEN 03D43", "norad_id": "53448", "line1": "1 53448U 22098E   26187.29215498  .00086535  00000+0  63982-3 0  9996", "line2": "2 53448  97.5607 319.5437 0003092 255.5780 104.5140 15.72692161217698", "country": "China", "operator": "Chang Guang Satellite Techno", "sensor": "Optical", "resolution_m": 1.0, "notes": "book:JILIN-1 SPECTRUM-01,02", "fetched_at": 1783341749.3078098, "stale": false}, "54251": {"name": "JILIN-1 GAOFEN 03D08", "norad_id": "54251", "line1": "1 54251U 22155A   26187.33960954  .00055316  00000+0  52551-3 0  9995", "line2": "2 54251  97.6231 334.2986 0003801 259.5913 100.4918 15.66707327202818", "country": "China", "operator": "Chang Guang Satellite Techno", "sensor": "Optical", "resolution_m": 1.0, "notes": "book:JILIN-1 SPECTRUM-01,02", "fetched_at": 1783341749.6580648, "stale": false}}