{"fetched_at":"2026-07-06T18:35:39.768Z","source":"https://celestrak.org/NORAD/elements/gp.php?NAME=JILIN&FORMAT=JSON","constellation":"jilin-1-gaofen","records":[{"OBJECT_NAME":"JILIN-1 GAOFEN 3A","OBJECT_ID":"2019-032C","EPOCH":"2026-07-06T05:52:53.401728","CLASSIFICATION_TYPE":"U","MEAN_MOTION":15.33068782,"ECCENTRICITY":0.0004855,"INCLINATION":44.9742,"RA_OF_ASC_NODE":252.0189,"ARG_OF_PERICENTER":40.4852,"MEAN_ANOMALY":319.6394,"EPHEMERIS_TYPE":0,"NORAD_CAT_ID":44312,"ELEMENT_SET_NO":999,"REV_AT_EPOCH":39076,"BSTAR":0.00031117809,"MEAN_MOTION_DOT":0.00009839,"MEAN_MOTION_DDOT":0},{"OBJECT_NAME":"JILIN-1 GAOFEN 2A","OBJECT_ID":"2019-075A","EPOCH":"2026-07-06T05:51:10.343808","CLASSIFICATION_TYPE":"U","MEAN_MOTION":15.39847138,"ECCENTRICITY":0.00060662,"INCLINATION":97.4957,"RA_OF_ASC_NODE":271.4855,"ARG_OF_PERICENTER":27.8254,"MEAN_ANOMALY":332.3315,"EPHEMERIS_TYPE":0,"NORAD_CAT_ID":44777,"ELEMENT_SET_NO":999,"REV_AT_EPOCH":36781,"BSTAR":0.00035198669,"MEAN_MOTION_DOT":0.00013904,"MEAN_MOTION_DDOT":0},{"OBJECT_NAME":"JILIN-1 GAOFEN 2B","OBJECT_ID":"2019-086A","EPOCH":"2026-07-06T07:03:16.816032","CLASSIFICATION_TYPE":"U","MEAN_MOTION":15.20932809,"ECCENTRICITY":0.00126098,"INCLINATION":97.487,"RA_OF_ASC_NODE":259.1669,"ARG_OF_PERICENTER":249.5933,"MEAN_ANOMALY":110.3948,"EPHEMERIS_TYPE":0,"NORAD_CAT_ID":44836,"ELEMENT_SET_NO":999,"REV_AT_EPOCH":36339,"BSTAR":0.00029569693,"MEAN_MOTION_DOT":0.00006488,"MEAN_MOTION_DDOT":0},{"OBJECT_NAME":"JILIN-1 GAOFEN 3E","OBJECT_ID":"2020-065D","EPOCH":"2026-07-06T06:40:53.860224","CLASSIFICATION_TYPE":"U","MEAN_MOTION":15.6624735,"ECCENTRICITY":0.00115244,"INCLINATION":97.2217,"RA_OF_ASC_NODE":240.3591,"ARG_OF_PERICENTER":99.9919,"MEAN_ANOMALY":260.2643,"EPHEMERIS_TYPE":0,"NORAD_CAT_ID":46457,"ELEMENT_SET_NO":999,"REV_AT_EPOCH":32274,"BSTAR":0.00071479093,"MEAN_MOTION_DOT":0.00074303,"MEAN_MOTION_DDOT":0},{"OBJECT_NAME":"JILIN-1 GAOFEN 3F","OBJECT_ID":"2020-065E","EPOCH":"2026-07-06T06:35:38.298048","CLASSIFICATION_TYPE":"U","MEAN_MOTION":15.63127526,"ECCENTRICITY":0.00129349,"INCLINATION":97.2174,"RA_OF_ASC_NODE":237.5949,"ARG_OF_PERICENTER":87.4136,"MEAN_ANOMALY":272.8603,"EPHEMERIS_TYPE":0,"NORAD_CAT_ID":46458,"ELEMENT_SET_NO":999,"REV_AT_EPOCH":32268,"BSTAR":0.00068982524,"MEAN_MOTION_DOT":0.00063358,"MEAN_MOTION_DDOT":0},{"OBJECT_NAME":"JILIN-1 GAOFEN 3G","OBJECT_ID":"2020-065F","EPOCH":"2026-07-06T07:05:27.864096","CLASSIFICATION_TYPE":"U","MEAN_MOTION":15.75276564,"ECCENTRICITY":0.00047423,"INCLINATION":97.2231,"RA_OF_ASC_NODE":244.761,"ARG_OF_PERICENTER":326.1554,"MEAN_ANOMALY":33.9408,"EPHEMERIS_TYPE":0,"NORAD_CAT_ID":46459,"ELEMENT_SET_NO":999,"REV_AT_EPOCH":32294,"BSTAR":0.00083190804,"MEAN_MOTION_DOT":0.00126341,"MEAN_MOTION_DDOT":0},{"OBJECT_NAME":"JILIN-1 GAOFEN 3H","OBJECT_ID":"2020-065G","EPOCH":"2026-07-06T07:31:40.919520","CLASSIFICATION_TYPE":"U","MEAN_MOTION":15.70990102,"ECCENTRICITY":0.00050012,"INCLINATION":97.2182,"RA_OF_ASC_NODE":240.9818,"ARG_OF_PERICENTER":235.3078,"MEAN_ANOMALY":124.7715,"EPHEMERIS_TYPE":0,"NORAD_CAT_ID":46460,"ELEMENT_SET_NO":999,"REV_AT_EPOCH":32288,"BSTAR":0.00080430951,"MEAN_MOTION_DOT":0.00101527,"MEAN_MOTION_DDOT":0},{"OBJECT_NAME":"JILIN-1 GAOFEN 2D","OBJECT_ID":"2021-086A","EPOCH":"2026-07-06T07:14:51.892800","CLASSIFICATION_TYPE":"U","MEAN_MOTION":15.10815925,"ECCENTRICITY":0.00344099,"INCLINATION":97.6496,"RA_OF_ASC_NODE":310.012,"ARG_OF_PERICENTER":79.9634,"MEAN_ANOMALY":280.5475,"EPHEMERIS_TYPE":0,"NORAD_CAT_ID":49256,"ELEMENT_SET_NO":999,"REV_AT_EPOCH":26360,"BSTAR":0.00029695356,"MEAN_MOTION_DOT":0.00004937,"MEAN_MOTION_DDOT":0},{"OBJECT_NAME":"JILIN-1 GAOFEN 2F","OBJECT_ID":"2021-097A","EPOCH":"2026-07-06T06:43:40.797984","CLASSIFICATION_TYPE":"U","MEAN_MOTION":15.07906366,"ECCENTRICITY":0.00193117,"INCLINATION":97.6727,"RA_OF_ASC_NODE":313.4365,"ARG_OF_PERICENTER":158.0987,"MEAN_ANOMALY":202.1071,"EPHEMERIS_TYPE":0,"NORAD_CAT_ID":49338,"ELEMENT_SET_NO":999,"REV_AT_EPOCH":25919,"BSTAR":0.00028922151,"MEAN_MOTION_DOT":0.00004392,"MEAN_MOTION_DDOT":0},{"OBJECT_NAME":"JILIN-1 GAOFEN 3D27","OBJECT_ID":"2022-048B","EPOCH":"2026-07-06T07:25:42.473568","CLASSIFICATION_TYPE":"U","MEAN_MOTION":15.80671685,"ECCENTRICITY":0.00041471,"INCLINATION":97.5726,"RA_OF_ASC_NODE":303.0514,"ARG_OF_PERICENTER":267.7247,"MEAN_ANOMALY":92.3546,"EPHEMERIS_TYPE":0,"NORAD_CAT_ID":52444,"ELEMENT_SET_NO":999,"REV_AT_EPOCH":23249,"BSTAR":0.0008710794,"MEAN_MOTION_DOT":0.00168943,"MEAN_MOTION_DDOT":0},{"OBJECT_NAME":"JILIN-1 GAOFEN 3D28","OBJECT_ID":"2022-048C","EPOCH":"2026-07-06T06:22:57.685152","CLASSIFICATION_TYPE":"U","MEAN_MOTION":15.84905525,"ECCENTRICITY":0.00038211,"INCLINATION":97.5661,"RA_OF_ASC_NODE":303.2463,"ARG_OF_PERICENTER":256.6239,"MEAN_ANOMALY":103.4605,"EPHEMERIS_TYPE":0,"NORAD_CAT_ID":52445,"ELEMENT_SET_NO":999,"REV_AT_EPOCH":23254,"BSTAR":0.00091149073,"MEAN_MOTION_DOT":0.00216455,"MEAN_MOTION_DDOT":0},{"OBJECT_NAME":"JILIN-1 GAOFEN 3D29","OBJECT_ID":"2022-048D","EPOCH":"2026-07-06T07:05:35.171808","CLASSIFICATION_TYPE":"U","MEAN_MOTION":15.80850648,"ECCENTRICITY":0.00035584,"INCLINATION":97.5717,"RA_OF_ASC_NODE":303.3992,"ARG_OF_PERICENTER":242.7851,"MEAN_ANOMALY":117.3055,"EPHEMERIS_TYPE":0,"NORAD_CAT_ID":52446,"ELEMENT_SET_NO":999,"REV_AT_EPOCH":23251,"BSTAR":0.00088629966,"MEAN_MOTION_DOT":0.00173373,"MEAN_MOTION_DDOT":0},{"OBJECT_NAME":"JILIN-1 GAOFEN 3D31","OBJECT_ID":"2022-048F","EPOCH":"2026-07-06T06:03:10.124064","CLASSIFICATION_TYPE":"U","MEAN_MOTION":15.89540716,"ECCENTRICITY":0.00043832,"INCLINATION":97.5708,"RA_OF_ASC_NODE":304.5626,"ARG_OF_PERICENTER":248.5881,"MEAN_ANOMALY":111.4924,"EPHEMERIS_TYPE":0,"NORAD_CAT_ID":52448,"ELEMENT_SET_NO":999,"REV_AT_EPOCH":23260,"BSTAR":0.00099389542,"MEAN_MOTION_DOT":0.00288292,"MEAN_MOTION_DDOT":0.000032427057},{"OBJECT_NAME":"JILIN-1 GAOFEN 03D09","OBJECT_ID":"2022-098B","EPOCH":"2026-07-06T07:05:39.897024","CLASSIFICATION_TYPE":"U","MEAN_MOTION":15.69173606,"ECCENTRICITY":0.00028132,"INCLINATION":97.562,"RA_OF_ASC_NODE":318.437,"ARG_OF_PERICENTER":262.4118,"MEAN_ANOMALY":97.6824,"EPHEMERIS_TYPE":0,"NORAD_CAT_ID":53445,"ELEMENT_SET_NO":999,"REV_AT_EPOCH":21762,"BSTAR":0.00061038772,"MEAN_MOTION_DOT":0.00071161,"MEAN_MOTION_DDOT":0},{"OBJECT_NAME":"JILIN-1 GAOFEN 03D43","OBJECT_ID":"2022-098E","EPOCH":"2026-07-06T07:00:42.190272","CLASSIFICATION_TYPE":"U","MEAN_MOTION":15.72692161,"ECCENTRICITY":0.0003092,"INCLINATION":97.5607,"RA_OF_ASC_NODE":319.5437,"ARG_OF_PERICENTER":255.578,"MEAN_ANOMALY":104.514,"EPHEMERIS_TYPE":0,"NORAD_CAT_ID":53448,"ELEMENT_SET_NO":999,"REV_AT_EPOCH":21769,"BSTAR":0.00063982175,"MEAN_MOTION_DOT":0.00086535,"MEAN_MOTION_DDOT":0},{"OBJECT_NAME":"JILIN-1 GAOFEN 03D08","OBJECT_ID":"2022-155A","EPOCH":"2026-07-06T08:09:02.264256","CLASSIFICATION_TYPE":"U","MEAN_MOTION":15.66707327,"ECCENTRICITY":0.00038011,"INCLINATION":97.6231,"RA_OF_ASC_NODE":334.2986,"ARG_OF_PERICENTER":259.5913,"MEAN_ANOMALY":100.4918,"EPHEMERIS_TYPE":0,"NORAD_CAT_ID":54251,"ELEMENT_SET_NO":999,"REV_AT_EPOCH":20281,"BSTAR":0.00052551147,"MEAN_MOTION_DOT":0.00055316,"MEAN_MOTION_DDOT":0}]}
